{
  "type": "FeatureCollection",
  "features": [
    {
      "type": "Feature",
      "properties": {
        "norad_id": 34556,
        "name": "COSMOS 2251 DEB",
        "group": "cosmos-2251-debris",
        "lat": -49.54778324612946,
        "lon": -56.4734050505274,
        "alt_km": 640.1548894415264,
        "timestamp": "2025-12-23T09:49:07.477535+00:00",
        "meta_object_name": "COSMOS 2251 DEB",
        "meta_object_id": "1993-036US",
        "meta_epoch": "2025-12-22T06:53:07.587168",
        "meta_mean_motion": 14.78074714,
        "meta_eccentricity": 0.000664,
        "meta_inclination": 74.0163,
        "meta_ra_of_asc_node": 106.0885,
        "meta_arg_of_pericenter": 165.6456,
        "meta_mean_anomaly": 217.5368,
        "meta_ephemeris_type": 0,
        "meta_classification_type": "U",
        "meta_norad_cat_id": 34556,
        "meta_element_set_no": 999,
        "meta_rev_at_epoch": 88470,
        "meta_bstar": 0.002445239,
        "meta_mean_motion_dot": 0.00017698,
        "meta_mean_motion_ddot": 0,
        "tle_line1": "1 34556U 93036US  25356.28689337  .00017698  00000+0  24452-2 0  9990",
        "tle_line2": "2 34556  74.0163 106.0885 0006640 165.6456 217.5368 14.78074714884705"
      },
      "geometry": {
        "type": "Point",
        "coordinates": [
          -56.4734050505274,
          -49.54778324612946
        ]
      }
    },
    {
      "type": "Feature",
      "properties": {
        "norad_id": 34560,
        "name": "COSMOS 2251 DEB",
        "group": "cosmos-2251-debris",
        "lat": -73.78744378473837,
        "lon": 21.654650168621167,
        "alt_km": 656.1154723462469,
        "timestamp": "2025-12-23T09:49:07.477545+00:00",
        "meta_object_name": "COSMOS 2251 DEB",
        "meta_object_id": "1993-036UW",
        "meta_epoch": "2025-12-21T19:39:42.022368",
        "meta_mean_motion": 14.72348108,
        "meta_eccentricity": 0.00139755,
        "meta_inclination": 74.0172,
        "meta_ra_of_asc_node": 124.4457,
        "meta_arg_of_pericenter": 206.7479,
        "meta_mean_anomaly": 276.7329,
        "meta_ephemeris_type": 0,
        "meta_classification_type": "U",
        "meta_norad_cat_id": 34560,
        "meta_element_set_no": 999,
        "meta_rev_at_epoch": 88385,
        "meta_bstar": 0.0017282394,
        "meta_mean_motion_dot": 0.00010939,
        "meta_mean_motion_ddot": 0,
        "tle_line1": "1 34560U 93036UW  25355.81923637  .00010939  00000+0  17282-2 0  9991",
        "tle_line2": "2 34560  74.0172 124.4457 0013975 206.7479 276.7329 14.72348108883854"
      },
      "geometry": {
        "type": "Point",
        "coordinates": [
          21.654650168621167,
          -73.78744378473837
        ]
      }
    },
    {
      "type": "Feature",
      "properties": {
        "norad_id": 34563,
        "name": "COSMOS 2251 DEB",
        "group": "cosmos-2251-debris",
        "lat": 52.61308167247115,
        "lon": -18.208985548133203,
        "alt_km": 740.5112047392086,
        "timestamp": "2025-12-23T09:49:07.477555+00:00",
        "meta_object_name": "COSMOS 2251 DEB",
        "meta_object_id": "1993-036UZ",
        "meta_epoch": "2025-12-22T13:37:02.712864",
        "meta_mean_motion": 14.46538441,
        "meta_eccentricity": 0.00139208,
        "meta_inclination": 74.0365,
        "meta_ra_of_asc_node": 185.3597,
        "meta_arg_of_pericenter": 278.8419,
        "meta_mean_anomaly": 143.9121,
        "meta_ephemeris_type": 0,
        "meta_classification_type": "U",
        "meta_norad_cat_id": 34563,
        "meta_element_set_no": 999,
        "meta_rev_at_epoch": 88339,
        "meta_bstar": 0.00036718775,
        "meta_mean_motion_dot": 1.297e-05,
        "meta_mean_motion_ddot": 0,
        "tle_line1": "1 34563U 93036UZ  25356.56739251  .00001297  00000+0  36719-3 0  9998",
        "tle_line2": "2 34563  74.0365 185.3597 0013920 278.8419 143.9121 14.46538441883392"
      },
      "geometry": {
        "type": "Point",
        "coordinates": [
          -18.208985548133203,
          52.61308167247115
        ]
      }
    },
    {
      "type": "Feature",
      "properties": {
        "norad_id": 34564,
        "name": "COSMOS 2251 DEB",
        "group": "cosmos-2251-debris",
        "lat": 37.873089298753065,
        "lon": -128.86028640750976,
        "alt_km": 750.4066412697866,
        "timestamp": "2025-12-23T09:49:07.477566+00:00",
        "meta_object_name": "COSMOS 2251 DEB",
        "meta_object_id": "1993-036VA",
        "meta_epoch": "2025-12-22T10:35:59.692704",
        "meta_mean_motion": 14.40705848,
        "meta_eccentricity": 0.00193597,
        "meta_inclination": 74.0315,
        "meta_ra_of_asc_node": 220.062,
        "meta_arg_of_pericenter": 322.6148,
        "meta_mean_anomaly": 101.2353,
        "meta_ephemeris_type": 0,
        "meta_classification_type": "U",
        "meta_norad_cat_id": 34564,
        "meta_element_set_no": 999,
        "meta_rev_at_epoch": 88146,
        "meta_bstar": 0.00021971586,
        "meta_mean_motion_dot": 6.77e-06,
        "meta_mean_motion_ddot": 0,
        "tle_line1": "1 34564U 93036VA  25356.44166311  .00000677  00000+0  21972-3 0  9993",
        "tle_line2": "2 34564  74.0315 220.0620 0019359 322.6148 101.2353 14.40705848881462"
      },
      "geometry": {
        "type": "Point",
        "coordinates": [
          -128.86028640750976,
          37.873089298753065
        ]
      }
    },
    {
      "type": "Feature",
      "properties": {
        "norad_id": 34567,
        "name": "COSMOS 2251 DEB",
        "group": "cosmos-2251-debris",
        "lat": 14.315240031576224,
        "lon": -46.609841975147354,
        "alt_km": 774.1256256695715,
        "timestamp": "2025-12-23T09:49:07.477576+00:00",
        "meta_object_name": "COSMOS 2251 DEB",
        "meta_object_id": "1993-036VD",
        "meta_epoch": "2025-12-22T16:16:54.466752",
        "meta_mean_motion": 14.2402716,
        "meta_eccentricity": 0.00741599,
        "meta_inclination": 74.0409,
        "meta_ra_of_asc_node": 138.8924,
        "meta_arg_of_pericenter": 211.0276,
        "meta_mean_anomaly": 170.0812,
        "meta_ephemeris_type": 0,
        "meta_classification_type": "U",
        "meta_norad_cat_id": 34567,
        "meta_element_set_no": 999,
        "meta_rev_at_epoch": 87266,
        "meta_bstar": 0.00021099929,
        "meta_mean_motion_dot": 4.73e-06,
        "meta_mean_motion_ddot": 0,
        "tle_line1": "1 34567U 93036VD  25356.67840818  .00000473  00000+0  21100-3 0  9999",
        "tle_line2": "2 34567  74.0409 138.8924 0074159 211.0276 170.0812 14.24027160872666"
      },
      "geometry": {
        "type": "Point",
        "coordinates": [
          -46.609841975147354,
          14.315240031576224
        ]
      }
    },
    {
      "type": "Feature",
      "properties": {
        "norad_id": 34569,
        "name": "COSMOS 2251 DEB",
        "group": "cosmos-2251-debris",
        "lat": 0.18648660776485604,
        "lon": 178.89731832402802,
        "alt_km": 698.7342127192005,
        "timestamp": "2025-12-23T09:49:07.477586+00:00",
        "meta_object_name": "COSMOS 2251 DEB",
        "meta_object_id": "1993-036VF",
        "meta_epoch": "2025-12-22T20:37:39.103968",
        "meta_mean_motion": 14.24776526,
        "meta_eccentricity": 0.01577718,
        "meta_inclination": 73.9894,
        "meta_ra_of_asc_node": 179.8374,
        "meta_arg_of_pericenter": 5.9127,
        "meta_mean_anomaly": 56.4739,
        "meta_ephemeris_type": 0,
        "meta_classification_type": "U",
        "meta_norad_cat_id": 34569,
        "meta_element_set_no": 999,
        "meta_rev_at_epoch": 87112,
        "meta_bstar": 0.00038517693,
        "meta_mean_motion_dot": 9.95e-06,
        "meta_mean_motion_ddot": 0,
        "tle_line1": "1 34569U 93036VF  25356.85948037  .00000995  00000+0  38518-3 0  9993",
        "tle_line2": "2 34569  73.9894 179.8374 0157771   5.9127  56.4739 14.24776526871127"
      },
      "geometry": {
        "type": "Point",
        "coordinates": [
          178.89731832402802,
          0.18648660776485604
        ]
      }
    },
    {
      "type": "Feature",
      "properties": {
        "norad_id": 34570,
        "name": "COSMOS 2251 DEB",
        "group": "cosmos-2251-debris",
        "lat": 50.18721905563228,
        "lon": -140.0776018774514,
        "alt_km": 765.193865661844,
        "timestamp": "2025-12-23T09:49:07.477596+00:00",
        "meta_object_name": "COSMOS 2251 DEB",
        "meta_object_id": "1993-036VG",
        "meta_epoch": "2025-12-22T13:07:20.317152",
        "meta_mean_motion": 13.99835506,
        "meta_eccentricity": 0.01903579,
        "meta_inclination": 73.9565,
        "meta_ra_of_asc_node": 201.2273,
        "meta_arg_of_pericenter": 81.526,
        "meta_mean_anomaly": 308.5079,
        "meta_ephemeris_type": 0,
        "meta_classification_type": "U",
        "meta_norad_cat_id": 34570,
        "meta_element_set_no": 999,
        "meta_rev_at_epoch": 85738,
        "meta_bstar": 0.00043673475,
        "meta_mean_motion_dot": 7.26e-06,
        "meta_mean_motion_ddot": 0,
        "tle_line1": "1 34570U 93036VG  25356.54676293  .00000726  00000+0  43673-3 0  9993",
        "tle_line2": "2 34570  73.9565 201.2273 0190357  81.5260 308.5079 13.99835506857382"
      },
      "geometry": {
        "type": "Point",
        "coordinates": [
          -140.0776018774514,
          50.18721905563228
        ]
      }
    }
  ]
}